[{"OBJECT_NAME":"ES'HAIL 2","OBJECT_ID":"2018-090A","EPOCH":"2026-03-05T12:24:28.317024","MEAN_MOTION":1.00272028,"ECCENTRICITY":0.0002702,"INCLINATION":0.0102,"RA_OF_ASC_NODE":207.479,"ARG_OF_PERICENTER":172.6625,"MEAN_ANOMALY":355.0003,"EPHEMERIS_TYPE":0,"CLASSIFICATION_TYPE":"U","NORAD_CAT_ID":43700,"ELEMENT_SET_NO":999,"REV_AT_EPOCH":2663,"BSTAR":0,"MEAN_MOTION_DOT":1.37e-6,"MEAN_MOTION_DDOT":0},{"OBJECT_NAME":"GEO-KOMPSAT-2A","OBJECT_ID":"2018-100A","EPOCH":"2026-03-04T06:21:38.470176","MEAN_MOTION":1.00267019,"ECCENTRICITY":0.00017508,"INCLINATION":0.0084,"RA_OF_ASC_NODE":82.1864,"ARG_OF_PERICENTER":326.5345,"MEAN_ANOMALY":336.9688,"EPHEMERIS_TYPE":0,"CLASSIFICATION_TYPE":"U","NORAD_CAT_ID":43823,"ELEMENT_SET_NO":999,"REV_AT_EPOCH":2657,"BSTAR":0,"MEAN_MOTION_DOT":0,"MEAN_MOTION_DDOT":0},{"OBJECT_NAME":"GSAT-11","OBJECT_ID":"2018-100B","EPOCH":"2026-03-06T04:02:24.716832","MEAN_MOTION":1.00272043,"ECCENTRICITY":0.00051616,"INCLINATION":0.0815,"RA_OF_ASC_NODE":270.9937,"ARG_OF_PERICENTER":145.3671,"MEAN_ANOMALY":242.1153,"EPHEMERIS_TYPE":0,"CLASSIFICATION_TYPE":"U","NORAD_CAT_ID":43824,"ELEMENT_SET_NO":999,"REV_AT_EPOCH":2644,"BSTAR":0,"MEAN_MOTION_DOT":-8.2e-7,"MEAN_MOTION_DDOT":0},{"OBJECT_NAME":"GSAT-7A","OBJECT_ID":"2018-105A","EPOCH":"2026-03-06T05:20:38.699232","MEAN_MOTION":1.00271714,"ECCENTRICITY":0.00019579,"INCLINATION":0.0948,"RA_OF_ASC_NODE":277.9826,"ARG_OF_PERICENTER":59.9277,"MEAN_ANOMALY":328.9185,"EPHEMERIS_TYPE":0,"CLASSIFICATION_TYPE":"U","NORAD_CAT_ID":43864,"ELEMENT_SET_NO":999,"REV_AT_EPOCH":2641,"BSTAR":0,"MEAN_MOTION_DOT":2.2e-7,"MEAN_MOTION_DDOT":0},{"OBJECT_NAME":"COSMOS 2533","OBJECT_ID":"2018-107A","EPOCH":"2026-03-06T04:01:17.324832","MEAN_MOTION":1.00273127,"ECCENTRICITY":3.575e-5,"INCLINATION":0.0169,"RA_OF_ASC_NODE":119.3697,"ARG_OF_PERICENTER":355.7587,"MEAN_ANOMALY":179.0814,"EPHEMERIS_TYPE":0,"CLASSIFICATION_TYPE":"U","NORAD_CAT_ID":43867,"ELEMENT_SET_NO":999,"REV_AT_EPOCH":2640,"BSTAR":0,"MEAN_MOTION_DOT":-4.4e-7,"MEAN_MOTION_DDOT":0},{"OBJECT_NAME":"TJS-3","OBJECT_ID":"2018-110A","EPOCH":"2026-03-05T17:35:56.681088","MEAN_MOTION":1.00349408,"ECCENTRICITY":0.001697,"INCLINATION":2.2781,"RA_OF_ASC_NODE":81.7709,"ARG_OF_PERICENTER":345.1463,"MEAN_ANOMALY":87.782,"EPHEMERIS_TYPE":0,"CLASSIFICATION_TYPE":"U","NORAD_CAT_ID":43874,"ELEMENT_SET_NO":999,"REV_AT_EPOCH":2638,"BSTAR":0,"MEAN_MOTION_DOT":-2.27e-6,"MEAN_MOTION_DDOT":0},{"OBJECT_NAME":"ZHONGXING-2D","OBJECT_ID":"2019-001A","EPOCH":"2026-03-06T07:43:48.487872","MEAN_MOTION":1.00271175,"ECCENTRICITY":0.00010188,"INCLINATION":0.0515,"RA_OF_ASC_NODE":299.0722,"ARG_OF_PERICENTER":1.7525,"MEAN_ANOMALY":109.1842,"EPHEMERIS_TYPE":0,"CLASSIFICATION_TYPE":"U","NORAD_CAT_ID":43920,"ELEMENT_SET_NO":999,"REV_AT_EPOCH":5304,"BSTAR":0,"MEAN_MOTION_DOT":-3.42e-6,"MEAN_MOTION_DDOT":0},{"OBJECT_NAME":"HELLAS-SAT 4 & SGS-1","OBJECT_ID":"2019-007A","EPOCH":"2026-03-05T21:01:45.061536","MEAN_MOTION":1.00272745,"ECCENTRICITY":0.00029098,"INCLINATION":0.0671,"RA_OF_ASC_NODE":126.1395,"ARG_OF_PERICENTER":22.232,"MEAN_ANOMALY":9.6779,"EPHEMERIS_TYPE":0,"CLASSIFICATION_TYPE":"U","NORAD_CAT_ID":44034,"ELEMENT_SET_NO":999,"REV_AT_EPOCH":2633,"BSTAR":0,"MEAN_MOTION_DOT":1.46e-6,"MEAN_MOTION_DDOT":0},{"OBJECT_NAME":"GSAT-31","OBJECT_ID":"2019-007B","EPOCH":"2026-03-06T05:50:38.914944","MEAN_MOTION":1.00271534,"ECCENTRICITY":0.00044895,"INCLINATION":0.0299,"RA_OF_ASC_NODE":257.6855,"ARG_OF_PERICENTER":49.5822,"MEAN_ANOMALY":352.2097,"EPHEMERIS_TYPE":0,"CLASSIFICATION_TYPE":"U","NORAD_CAT_ID":44035,"ELEMENT_SET_NO":999,"REV_AT_EPOCH":2593,"BSTAR":0,"MEAN_MOTION_DOT":1.2e-6,"MEAN_MOTION_DDOT":0},{"OBJECT_NAME":"NUSANTARA SATU","OBJECT_ID":"2019-009A","EPOCH":"2026-03-04T12:31:38.917344","MEAN_MOTION":1.00271077,"ECCENTRICITY":0.00015307,"INCLINATION":0.0283,"RA_OF_ASC_NODE":131.5344,"ARG_OF_PERICENTER":315.9846,"MEAN_ANOMALY":48.6457,"EPHEMERIS_TYPE":0,"CLASSIFICATION_TYPE":"U","NORAD_CAT_ID":44048,"ELEMENT_SET_NO":999,"REV_AT_EPOCH":2572,"BSTAR":0,"MEAN_MOTION_DOT":-2.46e-6,"MEAN_MOTION_DDOT":0},{"OBJECT_NAME":"ZHONGXING-6C","OBJECT_ID":"2019-012A","EPOCH":"2026-03-06T07:43:55.976160","MEAN_MOTION":1.0026975,"ECCENTRICITY":0.00088119,"INCLINATION":0.0483,"RA_OF_ASC_NODE":61.5467,"ARG_OF_PERICENTER":329.3667,"MEAN_ANOMALY":19.5097,"EPHEMERIS_TYPE":0,"CLASSIFICATION_TYPE":"U","NORAD_CAT_ID":44067,"ELEMENT_SET_NO":999,"REV_AT_EPOCH":2570,"BSTAR":0,"MEAN_MOTION_DOT":-3.4e-6,"MEAN_MOTION_DDOT":0},{"OBJECT_NAME":"WGS 10 (USA 291)","OBJECT_ID":"2019-014A","EPOCH":"2026-03-06T03:58:32.587680","MEAN_MOTION":1.00271096,"ECCENTRICITY":4.99e-5,"INCLINATION":0.0189,"RA_OF_ASC_NODE":136.1963,"ARG_OF_PERICENTER":249.1762,"MEAN_ANOMALY":258.4322,"EPHEMERIS_TYPE":0,"CLASSIFICATION_TYPE":"U","NORAD_CAT_ID":44071,"ELEMENT_SET_NO":999,"REV_AT_EPOCH":2558,"BSTAR":0,"MEAN_MOTION_DOT":4.2e-7,"MEAN_MOTION_DDOT":0},{"OBJECT_NAME":"TIANLIAN 2-01","OBJECT_ID":"2019-017A","EPOCH":"2026-03-06T04:03:17.133120","MEAN_MOTION":1.00271692,"ECCENTRICITY":0.00032056,"INCLINATION":0.2746,"RA_OF_ASC_NODE":82.3895,"ARG_OF_PERICENTER":224.1556,"MEAN_ANOMALY":355.1698,"EPHEMERIS_TYPE":0,"CLASSIFICATION_TYPE":"U","NORAD_CAT_ID":44076,"ELEMENT_SET_NO":999,"REV_AT_EPOCH":2561,"BSTAR":0,"MEAN_MOTION_DOT":-1.11e-6,"MEAN_MOTION_DDOT":0},{"OBJECT_NAME":"ARABSAT-6A","OBJECT_ID":"2019-021A","EPOCH":"2026-03-06T03:50:03.402240","MEAN_MOTION":1.00268858,"ECCENTRICITY":0.00032298,"INCLINATION":0.0196,"RA_OF_ASC_NODE":15.7621,"ARG_OF_PERICENTER":314.7825,"MEAN_ANOMALY":281.3494,"EPHEMERIS_TYPE":0,"CLASSIFICATION_TYPE":"U","NORAD_CAT_ID":44186,"ELEMENT_SET_NO":999,"REV_AT_EPOCH":2512,"BSTAR":0,"MEAN_MOTION_DOT":0,"MEAN_MOTION_DDOT":0},{"OBJECT_NAME":"BEIDOU-3 IGSO-1","OBJECT_ID":"2019-023A","EPOCH":"2026-03-06T07:40:48.775008","MEAN_MOTION":1.00270546,"ECCENTRICITY":0.00259794,"INCLINATION":58.5566,"RA_OF_ASC_NODE":38.7058,"ARG_OF_PERICENTER":236.3832,"MEAN_ANOMALY":123.2959,"EPHEMERIS_TYPE":0,"CLASSIFICATION_TYPE":"U","NORAD_CAT_ID":44204,"ELEMENT_SET_NO":999,"REV_AT_EPOCH":617,"BSTAR":0,"MEAN_MOTION_DOT":-2.07e-6,"MEAN_MOTION_DDOT":0},{"OBJECT_NAME":"BEIDOU-2 G8","OBJECT_ID":"2019-027A","EPOCH":"2026-03-06T06:05:20.429088","MEAN_MOTION":1.00275795,"ECCENTRICITY":0.00116109,"INCLINATION":1.3977,"RA_OF_ASC_NODE":74.2506,"ARG_OF_PERICENTER":271.2833,"MEAN_ANOMALY":54.1869,"EPHEMERIS_TYPE":0,"CLASSIFICATION_TYPE":"U","NORAD_CAT_ID":44231,"ELEMENT_SET_NO":999,"REV_AT_EPOCH":2504,"BSTAR":0,"MEAN_MOTION_DOT":-2.52e-6,"MEAN_MOTION_DDOT":0},{"OBJECT_NAME":"YAMAL 601","OBJECT_ID":"2019-031A","EPOCH":"2026-03-06T05:38:00.550176","MEAN_MOTION":1.0027343,"ECCENTRICITY":0.00025566,"INCLINATION":0.0151,"RA_OF_ASC_NODE":164.1225,"ARG_OF_PERICENTER":186.0448,"MEAN_ANOMALY":307.281,"EPHEMERIS_TYPE":0,"CLASSIFICATION_TYPE":"U","NORAD_CAT_ID":44307,"ELEMENT_SET_NO":999,"REV_AT_EPOCH":2488,"BSTAR":0,"MEAN_MOTION_DOT":1.15e-6,"MEAN_MOTION_DDOT":0}]
